KUIPER-00153            
1 65773U 25217M   26196.13096498  .00000141  00000+0  47541-4 0  9999
2 65773  51.9024 182.1312 0000829  62.0260 298.0786 14.79933778 43997
KUIPER-00155            
1 65774U 25217N   26196.09310987  .00001458  00000+0  22017-3 0  9999
2 65774  51.9013 154.7610 0000697  69.4212 290.6825 14.79933541 44376
KUIPER-00156            
1 65775U 25217P   26196.16477049  .00001218  00000+0  18871-3 0  9998
2 65775  51.9014 181.9637 0000389  88.3114 271.7893 14.79929311 43990
KUIPER-00163            
1 65777U 25217R   26196.18272712  .00480530  11995-3  65720-3 0  9994
2 65777  51.8733 117.8792 0002125 123.5567 236.5651 16.05640445 44871
KUIPER-00165            
1 65778U 25217S   26196.15392097  .00001135  00000+0  17788-3 0  9993
2 65778  51.9000 191.9566 0000516  80.3441 279.7579 14.79938073 43856
KUIPER-00166            
1 65779U 25217T   26196.13369234  .00001220  00000+0  18900-3 0  9991
2 65779  51.9020 179.5960 0000573  64.2042 295.8980 14.79930874 44026
KUIPER-00167            
1 65780U 25217U   26195.53535006  .00001134  00000+0  17776-3 0  9992
2 65780  51.8952 204.6022 0000508  64.3385 295.7630 14.79934425 43621
KUIPER-00168            
1 65781U 25217V   26196.16207019  .00001187  00000+0  18475-3 0  9998
2 65781  51.8997 184.4257 0000554  65.1159 294.9860 14.79927580 43962
KUIPER-00169            
1 65782U 25217W   26196.15664603  .00001636  00000+0  24349-3 0  9990
2 65782  51.8998 189.4587 0000489  79.6370 280.4647 14.79942377 43893
KUIPER-00170            
1 65783U 25217X   26196.15127051  .00001178  00000+0  18348-3 0  9995
2 65783  51.8983 194.4407 0000495  67.4289 292.6725 14.79927405 43826
KUIPER-00172            
1 65785U 25217Z   26196.13637450  .00001227  00000+0  18994-3 0  9996
2 65785  51.8988 177.0356 0000846  88.5961 271.5099 14.79935423 44060
KUIPER-00173            
1 65786U 25217AA  26195.44754219  .00000501  00000+0  94664-4 0  9996
2 65786  51.9000 192.5892 0000330  78.5105 281.5894 14.79939168 43783
KUIPER-00174            
1 65787U 25217AB  26196.12825911 -.00000705  00000+0 -63514-4 0  9999
2 65787  51.9007 184.6289 0000548  57.9674 302.1341 14.79940842 43953
KUIPER-00176            
1 65788U 25217AC  26196.17962610  .00001166  00000+0  18188-3 0  9999
2 65788  51.8992 199.3363 0000454  71.8586 288.2425 14.79926288 43758
KUIPER-00101            
1 65947U 25228A   26196.12416286  .00001521  00000+0  22855-3 0  9997
2 65947  51.8975 157.0381 0000531  86.5101 273.5922 14.79929393 42106
KUIPER-00113            
1 65948U 25228B   26196.09578892  .00001367  00000+0  20821-3 0  9995
2 65948  51.8982 152.1839 0000712  73.1992 286.9049 14.79938635 42163
