{"fetched_at":"2026-07-15T17:46:44.919Z","source":"https://celestrak.org/NORAD/elements/gp.php?GROUP=kuiper&FORMAT=JSON","constellation":"kuiper","records":[{"OBJECT_NAME":"KUIPER-00153","OBJECT_ID":"2025-217M","EPOCH":"2026-07-15T03:08:35.374272","CLASSIFICATION_TYPE":"U","MEAN_MOTION":14.79933778,"ECCENTRICITY":0.0000829,"INCLINATION":51.9024,"RA_OF_ASC_NODE":182.1312,"ARG_OF_PERICENTER":62.026,"MEAN_ANOMALY":298.0786,"EPHEMERIS_TYPE":0,"NORAD_CAT_ID":65773,"ELEMENT_SET_NO":999,"REV_AT_EPOCH":4399,"BSTAR":0.000047541,"MEAN_MOTION_DOT":0.00000141,"MEAN_MOTION_DDOT":0},{"OBJECT_NAME":"KUIPER-00155","OBJECT_ID":"2025-217N","EPOCH":"2026-07-15T02:14:04.692768","CLASSIFICATION_TYPE":"U","MEAN_MOTION":14.79933541,"ECCENTRICITY":0.0000697,"INCLINATION":51.9013,"RA_OF_ASC_NODE":154.761,"ARG_OF_PERICENTER":69.4212,"MEAN_ANOMALY":290.6825,"EPHEMERIS_TYPE":0,"NORAD_CAT_ID":65774,"ELEMENT_SET_NO":999,"REV_AT_EPOCH":4437,"BSTAR":0.00022017,"MEAN_MOTION_DOT":0.00001458,"MEAN_MOTION_DDOT":0},{"OBJECT_NAME":"KUIPER-00156","OBJECT_ID":"2025-217P","EPOCH":"2026-07-15T03:57:16.170336","CLASSIFICATION_TYPE":"U","MEAN_MOTION":14.79929311,"ECCENTRICITY":0.0000389,"INCLINATION":51.9014,"RA_OF_ASC_NODE":181.9637,"ARG_OF_PERICENTER":88.3114,"MEAN_ANOMALY":271.7893,"EPHEMERIS_TYPE":0,"NORAD_CAT_ID":65775,"ELEMENT_SET_NO":999,"REV_AT_EPOCH":4399,"BSTAR":0.00018871,"MEAN_MOTION_DOT":0.00001218,"MEAN_MOTION_DDOT":0},{"OBJECT_NAME":"KUIPER-00163","OBJECT_ID":"2025-217R","EPOCH":"2026-07-15T04:23:07.623168","CLASSIFICATION_TYPE":"U","MEAN_MOTION":16.05640445,"ECCENTRICITY":0.0002125,"INCLINATION":51.8733,"RA_OF_ASC_NODE":117.8792,"ARG_OF_PERICENTER":123.5567,"MEAN_ANOMALY":236.5651,"EPHEMERIS_TYPE":0,"NORAD_CAT_ID":65777,"ELEMENT_SET_NO":999,"REV_AT_EPOCH":4487,"BSTAR":0.0006572,"MEAN_MOTION_DOT":0.0048053,"MEAN_MOTION_DDOT":0.00011995},{"OBJECT_NAME":"KUIPER-00165","OBJECT_ID":"2025-217S","EPOCH":"2026-07-15T03:41:38.771808","CLASSIFICATION_TYPE":"U","MEAN_MOTION":14.79938073,"ECCENTRICITY":0.0000516,"INCLINATION":51.9,"RA_OF_ASC_NODE":191.9566,"ARG_OF_PERICENTER":80.3441,"MEAN_ANOMALY":279.7579,"EPHEMERIS_TYPE":0,"NORAD_CAT_ID":65778,"ELEMENT_SET_NO":999,"REV_AT_EPOCH":4385,"BSTAR":0.00017788,"MEAN_MOTION_DOT":0.00001135,"MEAN_MOTION_DDOT":0},{"OBJECT_NAME":"KUIPER-00166","OBJECT_ID":"2025-217T","EPOCH":"2026-07-15T03:12:31.018176","CLASSIFICATION_TYPE":"U","MEAN_MOTION":14.79930874,"ECCENTRICITY":0.0000573,"INCLINATION":51.902,"RA_OF_ASC_NODE":179.596,"ARG_OF_PERICENTER":64.2042,"MEAN_ANOMALY":295.898,"EPHEMERIS_TYPE":0,"NORAD_CAT_ID":65779,"ELEMENT_SET_NO":999,"REV_AT_EPOCH":4402,"BSTAR":0.000189,"MEAN_MOTION_DOT":0.0000122,"MEAN_MOTION_DDOT":0},{"OBJECT_NAME":"KUIPER-00167","OBJECT_ID":"2025-217U","EPOCH":"2026-07-14T12:50:54.245184","CLASSIFICATION_TYPE":"U","MEAN_MOTION":14.79934425,"ECCENTRICITY":0.0000508,"INCLINATION":51.8952,"RA_OF_ASC_NODE":204.6022,"ARG_OF_PERICENTER":64.3385,"MEAN_ANOMALY":295.763,"EPHEMERIS_TYPE":0,"NORAD_CAT_ID":65780,"ELEMENT_SET_NO":999,"REV_AT_EPOCH":4362,"BSTAR":0.00017776,"MEAN_MOTION_DOT":0.00001134,"MEAN_MOTION_DDOT":0},{"OBJECT_NAME":"KUIPER-00168","OBJECT_ID":"2025-217V","EPOCH":"2026-07-15T03:53:22.864416","CLASSIFICATION_TYPE":"U","MEAN_MOTION":14.7992758,"ECCENTRICITY":0.0000554,"INCLINATION":51.8997,"RA_OF_ASC_NODE":184.4257,"ARG_OF_PERICENTER":65.1159,"MEAN_ANOMALY":294.986,"EPHEMERIS_TYPE":0,"NORAD_CAT_ID":65781,"ELEMENT_SET_NO":999,"REV_AT_EPOCH":4396,"BSTAR":0.00018475,"MEAN_MOTION_DOT":0.00001187,"MEAN_MOTION_DDOT":0},{"OBJECT_NAME":"KUIPER-00169","OBJECT_ID":"2025-217W","EPOCH":"2026-07-15T03:45:34.216992","CLASSIFICATION_TYPE":"U","MEAN_MOTION":14.79942377,"ECCENTRICITY":0.0000489,"INCLINATION":51.8998,"RA_OF_ASC_NODE":189.4587,"ARG_OF_PERICENTER":79.637,"MEAN_ANOMALY":280.4647,"EPHEMERIS_TYPE":0,"NORAD_CAT_ID":65782,"ELEMENT_SET_NO":999,"REV_AT_EPOCH":4389,"BSTAR":0.00024349,"MEAN_MOTION_DOT":0.00001636,"MEAN_MOTION_DDOT":0},{"OBJECT_NAME":"KUIPER-00170","OBJECT_ID":"2025-217X","EPOCH":"2026-07-15T03:37:49.772064","CLASSIFICATION_TYPE":"U","MEAN_MOTION":14.79927405,"ECCENTRICITY":0.0000495,"INCLINATION":51.8983,"RA_OF_ASC_NODE":194.4407,"ARG_OF_PERICENTER":67.4289,"MEAN_ANOMALY":292.6725,"EPHEMERIS_TYPE":0,"NORAD_CAT_ID":65783,"ELEMENT_SET_NO":999,"REV_AT_EPOCH":4382,"BSTAR":0.00018348,"MEAN_MOTION_DOT":0.00001178,"MEAN_MOTION_DDOT":0},{"OBJECT_NAME":"KUIPER-00172","OBJECT_ID":"2025-217Z","EPOCH":"2026-07-15T03:16:22.756800","CLASSIFICATION_TYPE":"U","MEAN_MOTION":14.79935423,"ECCENTRICITY":0.0000846,"INCLINATION":51.8988,"RA_OF_ASC_NODE":177.0356,"ARG_OF_PERICENTER":88.5961,"MEAN_ANOMALY":271.5099,"EPHEMERIS_TYPE":0,"NORAD_CAT_ID":65785,"ELEMENT_SET_NO":999,"REV_AT_EPOCH":4406,"BSTAR":0.00018994,"MEAN_MOTION_DOT":0.00001227,"MEAN_MOTION_DDOT":0},{"OBJECT_NAME":"KUIPER-00173","OBJECT_ID":"2025-217AA","EPOCH":"2026-07-14T10:44:27.645216","CLASSIFICATION_TYPE":"U","MEAN_MOTION":14.79939168,"ECCENTRICITY":0.00003307,"INCLINATION":51.9,"RA_OF_ASC_NODE":192.5892,"ARG_OF_PERICENTER":78.5105,"MEAN_ANOMALY":281.5894,"EPHEMERIS_TYPE":0,"NORAD_CAT_ID":65786,"ELEMENT_SET_NO":999,"REV_AT_EPOCH":4378,"BSTAR":0.000094664241,"MEAN_MOTION_DOT":0.00000501,"MEAN_MOTION_DDOT":0},{"OBJECT_NAME":"KUIPER-00174","OBJECT_ID":"2025-217AB","EPOCH":"2026-07-15T03:04:41.587104","CLASSIFICATION_TYPE":"U","MEAN_MOTION":14.79940842,"ECCENTRICITY":0.0000548,"INCLINATION":51.9007,"RA_OF_ASC_NODE":184.6289,"ARG_OF_PERICENTER":57.9674,"MEAN_ANOMALY":302.1341,"EPHEMERIS_TYPE":0,"NORAD_CAT_ID":65787,"ELEMENT_SET_NO":999,"REV_AT_EPOCH":4395,"BSTAR":-0.000063514,"MEAN_MOTION_DOT":-0.00000705,"MEAN_MOTION_DDOT":0},{"OBJECT_NAME":"KUIPER-00176","OBJECT_ID":"2025-217AC","EPOCH":"2026-07-15T04:18:39.695040","CLASSIFICATION_TYPE":"U","MEAN_MOTION":14.79926288,"ECCENTRICITY":0.0000454,"INCLINATION":51.8992,"RA_OF_ASC_NODE":199.3363,"ARG_OF_PERICENTER":71.8586,"MEAN_ANOMALY":288.2425,"EPHEMERIS_TYPE":0,"NORAD_CAT_ID":65788,"ELEMENT_SET_NO":999,"REV_AT_EPOCH":4375,"BSTAR":0.00018188,"MEAN_MOTION_DOT":0.00001166,"MEAN_MOTION_DDOT":0},{"OBJECT_NAME":"KUIPER-00101","OBJECT_ID":"2025-228A","EPOCH":"2026-07-15T02:58:47.671104","CLASSIFICATION_TYPE":"U","MEAN_MOTION":14.79929393,"ECCENTRICITY":0.0000531,"INCLINATION":51.8975,"RA_OF_ASC_NODE":157.0381,"ARG_OF_PERICENTER":86.5101,"MEAN_ANOMALY":273.5922,"EPHEMERIS_TYPE":0,"NORAD_CAT_ID":65947,"ELEMENT_SET_NO":999,"REV_AT_EPOCH":4210,"BSTAR":0.00022855,"MEAN_MOTION_DOT":0.00001521,"MEAN_MOTION_DDOT":0},{"OBJECT_NAME":"KUIPER-00113","OBJECT_ID":"2025-228B","EPOCH":"2026-07-15T02:17:56.162688","CLASSIFICATION_TYPE":"U","MEAN_MOTION":14.79938635,"ECCENTRICITY":0.0000712,"INCLINATION":51.8982,"RA_OF_ASC_NODE":152.1839,"ARG_OF_PERICENTER":73.1992,"MEAN_ANOMALY":286.9049,"EPHEMERIS_TYPE":0,"NORAD_CAT_ID":65948,"ELEMENT_SET_NO":999,"REV_AT_EPOCH":4216,"BSTAR":0.00020821,"MEAN_MOTION_DOT":0.00001367,"MEAN_MOTION_DDOT":0}]}
